{"type": "FeatureCollection", "features": [ {"type": "Feature", "properties": {"norad_id": 66623, "name": "STARLINK-35920", "group": "last-30-days", "lat": 14.808641535073358, "lon": 34.19972354836461, "alt_km": 326.8004660899296, "timestamp": "2025-12-04T21:36:14.653635+00:00", "meta": {"OBJECT_NAME": "STARLINK-35920", "OBJECT_ID": "2025-271G", "EPOCH": "2025-12-04T10:18:25.885728", "MEAN_MOTION": 15.81474448, "ECCENTRICITY": 0.00014202, "INCLINATION": 53.1567, "RA_OF_ASC_NODE": 227.9949, "ARG_OF_PERICENTER": 2.2541, "MEAN_ANOMALY": 357.8488, "EPHEMERIS_TYPE": 0, "CLASSIFICATION_TYPE": "U", "NORAD_CAT_ID": 66623, "ELEMENT_SET_NO": 999, "REV_AT_EPOCH": 290, "BSTAR": -0.0016179705, "MEAN_MOTION_DOT": -0.00317341, "MEAN_MOTION_DDOT": 0}, "tle": {"line1": "1 66623U 25271G   25338.42946627 -.00317341  00000+0 -16180-2 0  9999", "line2": "2 66623  53.1567 227.9949 0001420   2.2541 357.8488 15.81474448  2905"}}, "geometry": {"type": "Point", "coordinates": [34.19972354836461, 14.808641535073358]}}, {"type": "Feature", "properties": {"norad_id": 66624, "name": "STARLINK-35927", "group": "last-30-days", "lat": 16.59750555847594, "lon": 32.7238836435943, "alt_km": 326.65254761188226, "timestamp": "2025-12-04T21:36:14.653647+00:00", "meta": {"OBJECT_NAME": "STARLINK-35927", "OBJECT_ID": "2025-271H", "EPOCH": "2025-12-04T10:18:57.530592", "MEAN_MOTION": 15.81398589, "ECCENTRICITY": 0.00028797, "INCLINATION": 53.1566, "RA_OF_ASC_NODE": 227.9976, "ARG_OF_PERICENTER": 55.085, "MEAN_ANOMALY": 305.0443, "EPHEMERIS_TYPE": 0, "CLASSIFICATION_TYPE": "U", "NORAD_CAT_ID": 66624, "ELEMENT_SET_NO": 999, "REV_AT_EPOCH": 290, "BSTAR": -0.0023984837, "MEAN_MOTION_DOT": -0.0046107, "MEAN_MOTION_DDOT": 0}, "tle": {"line1": "1 66624U 25271H   25338.42983253 -.00461070  00000+0 -23985-2 0  9996", "line2": "2 66624  53.1566 227.9976 0002879  55.0850 305.0443 15.81398589  2900"}}, "geometry": {"type": "Point", "coordinates": [32.7238836435943, 16.59750555847594]}}, {"type": "Feature", "properties": {"norad_id": 66625, "name": "STARLINK-35929", "group": "last-30-days", "lat": 13.889720024368648, "lon": 34.945908864959584, "alt_km": 325.88062393668133, "timestamp": "2025-12-04T21:36:14.653659+00:00", "meta": {"OBJECT_NAME": "STARLINK-35929", "OBJECT_ID": "2025-271J", "EPOCH": "2025-12-04T16:22:02.138880", "MEAN_MOTION": 15.80678643, "ECCENTRICITY": 0.0002822, "INCLINATION": 53.1566, "RA_OF_ASC_NODE": 226.7252, "ARG_OF_PERICENTER": 183.9562, "MEAN_ANOMALY": 176.1439, "EPHEMERIS_TYPE": 0, "CLASSIFICATION_TYPE": "U", "NORAD_CAT_ID": 66625, "ELEMENT_SET_NO": 999, "REV_AT_EPOCH": 294, "BSTAR": -0.00077251927, "MEAN_MOTION_DOT": -0.00149281, "MEAN_MOTION_DDOT": 0}, "tle": {"line1": "1 66625U 25271J   25338.68196920 -.00149281  00000+0 -77252-3 0  9996", "line2": "2 66625  53.1566 226.7252 0002822 183.9562 176.1439 15.80678643  2941"}}, "geometry": {"type": "Point", "coordinates": [34.945908864959584, 13.889720024368648]}}, {"type": "Feature", "properties": {"norad_id": 66626, "name": "STARLINK-35902", "group": "last-30-days", "lat": 5.083833385562176, "lon": 41.78392917225347, "alt_km": 281.1430135720011, "timestamp": "2025-12-04T21:36:14.653669+00:00", "meta": {"OBJECT_NAME": "STARLINK-35902", "OBJECT_ID": "2025-271K", "EPOCH": "2025-12-04T16:20:49.968960", "MEAN_MOTION": 15.86445814, "ECCENTRICITY": 0.00347567, "INCLINATION": 53.156, "RA_OF_ASC_NODE": 226.7204, "ARG_OF_PERICENTER": 215.7244, "MEAN_ANOMALY": 144.1456, "EPHEMERIS_TYPE": 0, "CLASSIFICATION_TYPE": "U", "NORAD_CAT_ID": 66626, "ELEMENT_SET_NO": 999, "REV_AT_EPOCH": 294, "BSTAR": 0.043582631, "MEAN_MOTION_DOT": 0.08830048, "MEAN_MOTION_DDOT": 0.12235125}, "tle": {"line1": "1 66626U 25271K   25338.68113390  .08830048  12235+0  43583-1 0  9992", "line2": "2 66626  53.1560 226.7204 0034756 215.7244 144.1456 15.86445814  2947"}}, "geometry": {"type": "Point", "coordinates": [41.78392917225347, 5.083833385562176]}}, {"type": "Feature", "properties": {"norad_id": 66627, "name": "STARLINK-35904", "group": "last-30-days", "lat": 8.76903683132329, "lon": 38.97557496580947, "alt_km": 330.1210692576042, "timestamp": "2025-12-04T21:36:14.653680+00:00", "meta": {"OBJECT_NAME": "STARLINK-35904", "OBJECT_ID": "2025-271L", "EPOCH": "2025-12-04T07:14:32.665344", "MEAN_MOTION": 15.81754279, "ECCENTRICITY": 0.00049774, "INCLINATION": 53.1565, "RA_OF_ASC_NODE": 228.6202, "ARG_OF_PERICENTER": 9.6313, "MEAN_ANOMALY": 350.4805, "EPHEMERIS_TYPE": 0, "CLASSIFICATION_TYPE": "U", "NORAD_CAT_ID": 66627, "ELEMENT_SET_NO": 999, "REV_AT_EPOCH": 284, "BSTAR": -0.0026856011, "MEAN_MOTION_DOT": -0.00521766, "MEAN_MOTION_DDOT": 0}, "tle": {"line1": "1 66627U 25271L   25338.30176696 -.00521766  00000+0 -26856-2 0  9990", "line2": "2 66627  53.1565 228.6202 0004977   9.6313 350.4805 15.81754279  2843"}}, "geometry": {"type": "Point", "coordinates": [38.97557496580947, 8.76903683132329]}}, {"type": "Feature", "properties": {"norad_id": 66628, "name": "STARLINK-35862", "group": "last-30-days", "lat": 7.73712138978104, "lon": 39.7676110814023, "alt_km": 329.38604264557034, "timestamp": "2025-12-04T21:36:14.653689+00:00", "meta": {"OBJECT_NAME": "STARLINK-35862", "OBJECT_ID": "2025-271M", "EPOCH": "2025-12-04T10:16:01.613280", "MEAN_MOTION": 15.81203428, "ECCENTRICITY": 0.00029657, "INCLINATION": 53.1566, "RA_OF_ASC_NODE": 227.9834, "ARG_OF_PERICENTER": 43.7818, "MEAN_ANOMALY": 316.3439, "EPHEMERIS_TYPE": 0, "CLASSIFICATION_TYPE": "U", "NORAD_CAT_ID": 66628, "ELEMENT_SET_NO": 999, "REV_AT_EPOCH": 290, "BSTAR": -0.002617194, "MEAN_MOTION_DOT": -0.00496527, "MEAN_MOTION_DDOT": 0}, "tle": {"line1": "1 66628U 25271M   25338.42779645 -.00496527  00000+0 -26172-2 0  9994", "line2": "2 66628  53.1566 227.9834 0002965  43.7818 316.3439 15.81203428  2908"}}, "geometry": {"type": "Point", "coordinates": [39.7676110814023, 7.73712138978104]}}, {"type": "Feature", "properties": {"norad_id": 66629, "name": "STARLINK-35956", "group": "last-30-days", "lat": 6.319699951661538, "lon": 40.84772162405128, "alt_km": 326.2591172489083, "timestamp": "2025-12-04T21:36:14.653699+00:00", "meta": {"OBJECT_NAME": "STARLINK-35956", "OBJECT_ID": "2025-271N", "EPOCH": "2025-12-04T14:48:36.629568", "MEAN_MOTION": 15.80814946, "ECCENTRICITY": 0.0003462, "INCLINATION": 53.1564, "RA_OF_ASC_NODE": 227.0304, "ARG_OF_PERICENTER": 205.6948, "MEAN_ANOMALY": 154.3903, "EPHEMERIS_TYPE": 0, "CLASSIFICATION_TYPE": "U", "NORAD_CAT_ID": 66629, "ELEMENT_SET_NO": 999, "REV_AT_EPOCH": 293, "BSTAR": 7.1166658e-05, "MEAN_MOTION_DOT": 0.00013332, "MEAN_MOTION_DDOT": 0}, "tle": {"line1": "1 66629U 25271N   25338.61709062  .00013332  00000+0  71167-4 0  9995", "line2": "2 66629  53.1564 227.0304 0003462 205.6948 154.3903 15.80814946  2937"}}, "geometry": {"type": "Point", "coordinates": [40.84772162405128, 6.319699951661538]}}, {"type": "Feature", "properties": {"norad_id": 66630, "name": "STARLINK-35949", "group": "last-30-days", "lat": 2.3338394020944557, "lon": 43.84890368683202, "alt_km": 320.67880018581036, "timestamp": "2025-12-04T21:36:14.653715+00:00", "meta": {"OBJECT_NAME": "STARLINK-35949", "OBJECT_ID": "2025-271P", "EPOCH": "2025-12-04T16:18:42.867648", "MEAN_MOTION": 15.82414283, "ECCENTRICITY": 0.00130107, "INCLINATION": 53.1561, "RA_OF_ASC_NODE": 226.7088, "ARG_OF_PERICENTER": 255.5421, "MEAN_ANOMALY": 104.4159, "EPHEMERIS_TYPE": 0, "CLASSIFICATION_TYPE": "U", "NORAD_CAT_ID": 66630, "ELEMENT_SET_NO": 999, "REV_AT_EPOCH": 294, "BSTAR": 0.0072797652, "MEAN_MOTION_DOT": 0.01751673, "MEAN_MOTION_DDOT": 0}, "tle": {"line1": "1 66630U 25271P   25338.67966282  .01751673  00000+0  72798-2 0  9999", "line2": "2 66630  53.1561 226.7088 0013010 255.5421 104.4159 15.82414283  2943"}}, "geometry": {"type": "Point", "coordinates": [43.84890368683202, 2.3338394020944557]}}, {"type": "Feature", "properties": {"norad_id": 66631, "name": "STARLINK-35965", "group": "last-30-days", "lat": 1.6848090061432235, "lon": 44.33472699872576, "alt_km": 327.0415868673681, "timestamp": "2025-12-04T21:36:14.653725+00:00", "meta": {"OBJECT_NAME": "STARLINK-35965", "OBJECT_ID": "2025-271Q", "EPOCH": "2025-12-04T07:12:21.035808", "MEAN_MOTION": 15.81776671, "ECCENTRICITY": 0.00011348, "INCLINATION": 53.1568, "RA_OF_ASC_NODE": 228.6092, "ARG_OF_PERICENTER": 128.5518, "MEAN_ANOMALY": 231.5607, "EPHEMERIS_TYPE": 0, "CLASSIFICATION_TYPE": "U", "NORAD_CAT_ID": 66631, "ELEMENT_SET_NO": 999, "REV_AT_EPOCH": 288, "BSTAR": -0.0020617817, "MEAN_MOTION_DOT": -0.004058, "MEAN_MOTION_DDOT": 0}, "tle": {"line1": "1 66631U 25271Q   25338.30024347 -.00405800  00000+0 -20618-2 0  9990", "line2": "2 66631  53.1568 228.6092 0001134 128.5518 231.5607 15.81776671  2881"}}, "geometry": {"type": "Point", "coordinates": [44.33472699872576, 1.6848090061432235]}}, {"type": "Feature", "properties": {"norad_id": 66632, "name": "STARLINK-35973", "group": "last-30-days", "lat": -2.128579727694409, "lon": 47.186530233091794, "alt_km": 316.06601993242566, "timestamp": "2025-12-04T21:36:14.653735+00:00", "meta": {"OBJECT_NAME": "STARLINK-35973", "OBJECT_ID": "2025-271R", "EPOCH": "2025-12-04T14:46:28.364448", "MEAN_MOTION": 15.82712657, "ECCENTRICITY": 0.0011942, "INCLINATION": 53.1558, "RA_OF_ASC_NODE": 227.0207, "ARG_OF_PERICENTER": 219.0109, "MEAN_ANOMALY": 141.0054, "EPHEMERIS_TYPE": 0, "CLASSIFICATION_TYPE": "U", "NORAD_CAT_ID": 66632, "ELEMENT_SET_NO": 999, "REV_AT_EPOCH": 289, "BSTAR": 0.0047215134, "MEAN_MOTION_DOT": 0.0113708, "MEAN_MOTION_DDOT": 0}, "tle": {"line1": "1 66632U 25271R   25338.61560607  .01137080  00000+0  47215-2 0  9992", "line2": "2 66632  53.1558 227.0207 0011942 219.0109 141.0054 15.82712657  2899"}}, "geometry": {"type": "Point", "coordinates": [47.186530233091794, -2.128579727694409]}}]}